OBJECT_NAME,OBJECT_ID,EPOCH,MEAN_MOTION,ECCENTRICITY,INCLINATION,RA_OF_ASC_NODE,ARG_OF_PERICENTER,MEAN_ANOMALY,EPHEMERIS_TYPE,CLASSIFICATION_TYPE,NORAD_CAT_ID,ELEMENT_SET_NO,REV_AT_EPOCH,BSTAR,MEAN_MOTION_DOT,MEAN_MOTION_DDOT
STARLINK-4179,2022-086AK,2026-06-09T15:12:05.112864,15.08809166,.00013664,53.1657,131.3198,118.4245,241.6884,0,U,53275,999,21507,.40601985E-3,.6174E-4,0
STARLINK-4174,2022-086AL,2026-06-09T15:22:39.062496,15.08814349,.00012806,53.1641,131.2862,90.6023,269.5115,0,U,53276,999,21507,.29917215E-3,.4473E-4,0
STARLINK-4178,2022-086AM,2026-06-09T15:01:27.433344,15.08829825,.00012988,53.1648,131.3816,87.7309,272.3832,0,U,53277,999,21507,.52812233E-4,.552E-5,0
STARLINK-4180,2022-086AN,2026-06-09T15:06:44.859168,15.08824341,.00011242,53.1664,131.3358,78.8809,281.2308,0,U,53278,999,21507,.33739636E-3,.5084E-4,0
STARLINK-4169,2022-086AQ,2026-06-09T02:05:43.161504,15.08831402,.00012132,53.1661,88.4495,86.4514,273.6616,0,U,53280,999,21563,.14265372E-4,-.61E-6,0
STARLINK-4164,2022-086AS,2026-06-09T14:56:09.813984,15.08804630,.00014201,53.1646,131.3705,96.1213,263.9940,0,U,53282,999,21507,.35105147E-3,.5298E-4,0
STARLINK-4175,2022-086AT,2026-06-09T14:40:14.985120,15.08833476,.00008943,53.1653,131.4179,70.0851,290.0237,0,U,53283,999,21507,-.22303181E-4,-.643E-5,0
STARLINK-4173,2022-086AV,2026-06-09T04:52:01.408512,15.08854937,.00010541,53.1633,133.2569,105.7905,254.3202,0,U,53285,999,21500,.23396576E-3,.3439E-4,0
STARLINK-4165,2022-086AW,2026-06-09T15:27:55.398816,15.08790242,.00013606,53.1645,130.9611,100.2457,259.8688,0,U,53286,999,21507,.45296528E-3,.6919E-4,0
STARLINK-4107,2022-086AX,2026-06-09T04:41:26.260512,15.08832923,.0000852,53.1675,133.2879,103.1187,256.9900,0,U,53287,999,21500,.48225501E-4,.48E-5,0
STARLINK-4162,2022-086AY,2026-06-09T04:57:20.145888,15.08834291,.00013639,53.1671,133.2395,89.5730,270.5418,0,U,53288,999,21500,.18076564E-4,0,0
STARLINK-4176,2022-086AZ,2026-06-09T15:15:22.568832,15.08839457,.00012248,53.1666,126.4511,91.5339,268.5793,0,U,53289,999,21513,.8516498E-4,.1068E-4,0
STARLINK-4149,2022-086BA,2026-06-09T04:44:42.392832,15.09015613,.00015577,53.2157,133.3146,61.2616,298.8533,0,U,53290,999,21500,.13593885E-3,.1886E-4,0
STARLINK-4166,2022-086BB,2026-06-09T04:55:18.931008,15.08831449,.00013127,53.1669,128.0366,85.7540,274.3601,0,U,53291,999,21507,.48965869E-4,.491E-5,0
STARLINK-4159,2022-086BC,2026-06-09T14:34:59.171520,15.08828602,.00014249,53.1658,131.6190,87.0888,273.0267,0,U,53292,999,21506,.28172158E-4,.16E-5,0
STARLINK-4148,2022-086BD,2026-06-09T15:02:46.062528,15.08835958,.00012451,53.1682,121.3370,71.1314,288.9812,0,U,53293,999,21520,.33869895E-4,.251E-5,0
STARLINK-4146,2022-086BE,2026-06-09T04:21:32.323104,15.08841614,.00012916,53.1648,123.1870,81.4196,278.6942,0,U,53294,999,21518,.12539302E-3,.1708E-4,0
STARLINK-4522,2022-097A,2026-06-09T11:10:56.220672,15.08817243,.00010749,53.1623,72.0727,93.8830,266.2284,0,U,53388,999,21270,.31900771E-3,.479E-4,0
STARLINK-4523,2022-097B,2026-06-09T11:00:20.819520,15.08807498,.00014861,53.1648,72.1050,98.0153,262.1007,0,U,53389,999,21252,.30126637E-3,.4506E-4,0
STARLINK-4517,2022-097C,2026-06-09T11:05:38.794848,15.08802747,.00012827,53.1647,72.0893,96.0620,264.0518,0,U,53390,999,21267,.40834498E-3,.621E-4,0
STARLINK-4521,2022-097D,2026-06-09T10:55:02.323200,15.08826328,.00012886,53.1667,72.1267,71.3567,288.7564,0,U,53391,999,21252,-.3512894E-4,-.847E-5,0
STARLINK-4535,2022-097E,2026-06-09T10:44:26.838240,15.08833004,.00013635,53.1642,72.1540,82.8208,277.2938,0,U,53392,999,21252,-.59947965E-4,-.1242E-4,0
STARLINK-4530,2022-097F,2026-06-09T10:49:44.433408,15.08830479,.00013944,53.1646,72.1399,91.5071,268.6080,0,U,53393,999,21252,.8909722E-5,-.146E-5,0
STARLINK-4544,2022-097G,2026-06-09T11:07:04.829376,15.08674135,.00014753,53.1731,61.6965,126.5745,233.5382,0,U,53394,999,21267,-.13647911E-2,-.21845E-3,0
STARLINK-4534,2022-097H,2026-06-09T10:40:31.036224,15.08830871,.00013181,53.1638,72.1756,90.5017,269.6126,0,U,53395,999,21236,.4372624E-5,-.218E-5,0
STARLINK-4524,2022-097J,2026-06-09T00:45:37.622016,15.08834535,.00013443,53.1661,74.0235,94.7690,265.3455,0,U,53396,999,21230,.17281622E-4,-.13E-6,0
STARLINK-4515,2022-097K,2026-06-09T01:01:31.198080,15.08833908,.00013166,53.1656,73.9720,90.6494,269.4648,0,U,53397,999,21230,.29742074E-4,.185E-5,0
STARLINK-4512,2022-097L,2026-06-09T11:42:45.436032,15.08822807,.00013445,53.1672,71.9722,116.4249,243.6881,0,U,53398,999,21237,-.486835E-4,-.1062E-4,0
STARLINK-4528,2022-097M,2026-06-09T00:50:55.339008,15.08834015,.0001206,53.1641,74.0077,88.2027,271.9103,0,U,53399,999,21230,.17297868E-4,-.13E-6,0
STARLINK-4520,2022-097N,2026-06-09T11:26:49.747488,15.08836915,.00012818,53.1665,72.0224,86.2862,273.8276,0,U,53400,999,21237,.73721005E-4,.885E-5,0
STARLINK-4525,2022-097P,2026-06-09T00:40:19.506720,15.08838711,.00013323,53.1669,74.0415,82.2266,277.8876,0,U,53401,999,21230,.46680533E-4,.455E-5,0
STARLINK-4499,2022-097Q,2026-06-09T11:21:32.577408,15.08811132,.00012191,53.1644,72.0397,96.0651,264.0479,0,U,53402,999,21237,.48251445E-3,.7394E-4,0
STARLINK-4507,2022-097R,2026-06-09T10:51:11.024352,15.08825089,.00015264,53.1634,72.4790,88.2118,271.9048,0,U,53403,999,21236,-.8758606E-5,-.427E-5,0
STARLINK-4509,2022-097S,2026-06-09T01:25:25.260096,15.08827169,.00019728,53.1685,63.8310,51.5255,308.5913,0,U,53404,999,21244,.32557741E-4,.23E-5,0
STARLINK-4510,2022-097T,2026-06-09T11:16:14.243520,15.08831126,.00011847,53.1652,72.0564,90.0574,270.0553,0,U,53405,999,21237,.74326729E-4,.895E-5,0
STARLINK-4533,2022-097U,2026-06-09T10:40:28.954848,15.08827412,.00014948,53.1642,62.1667,80.6671,279.4489,0,U,53406,999,21250,.21919597E-3,.3201E-4,0
STARLINK-4491,2022-097W,2026-06-09T10:56:21.623712,15.08831924,.00009131,53.1645,62.1222,90.9833,269.1263,0,U,53408,999,21250,.34097737E-4,.255E-5,0
STARLINK-4490,2022-097X,2026-06-08T23:39:25.431264,15.08829062,.0002048,53.1657,54.4230,94.1216,266.0009,0,U,53409,999,21257,.6968685E-5,-.177E-5,0
STARLINK-4492,2022-097Y,2026-06-09T10:51:04.089888,15.08846051,.00012525,53.1647,62.1335,92.9666,267.1469,0,U,53410,999,21250,-.65435556E-4,-.1329E-4,0
STARLINK-4497,2022-097Z,2026-06-09T11:01:39.475488,15.08834007,.00012006,53.1694,62.0998,92.0145,268.0984,0,U,53411,999,21250,.37352815E-4,.307E-5,0
STARLINK-4496,2022-097AA,2026-06-09T10:35:10.144896,15.08828491,.0001243,53.1633,62.1843,101.5502,258.5629,0,U,53412,999,21250,.17731312E-4,-.6E-7,0
STARLINK-4500,2022-097AB,2026-06-09T10:45:45.520992,15.08836235,.00011951,53.1645,62.1515,90.3988,269.7140,0,U,53413,999,21250,.53215255E-4,.559E-5,0
STARLINK-4304,2022-097AC,2026-06-09T00:57:33.741504,15.08826545,.00014646,53.1641,63.9854,64.6426,295.4717,0,U,53414,999,21243,.5245913E-5,-.205E-5,0
STARLINK-4479,2022-097AD,2026-06-09T10:24:34.232256,15.08830874,.00010603,53.1654,62.2167,93.3584,266.7529,0,U,53415,999,21247,.11161889E-4,-.11E-5,0
STARLINK-4480,2022-097AE,2026-06-09T00:31:02.861760,15.08842487,.00019526,53.1661,64.0201,103.2533,256.8676,0,U,53416,999,21241,-.35045832E-4,-.846E-5,0
STARLINK-4484,2022-097AF,2026-06-09T00:46:57.058176,15.08849097,.00014432,53.1662,64.0199,96.0689,264.0467,0,U,53417,999,21241,.58829674E-3,.909E-4,0
STARLINK-4481,2022-097AG,2026-06-09T09:22:14.759040,15.08773673,.00015171,53.1673,51.9737,79.8578,280.2584,0,U,53418,999,21264,.71198632E-3,.11041E-3,0
STARLINK-4476,2022-097AH,2026-06-09T10:13:56.892288,15.08884739,.00013095,53.1672,62.2496,113.1214,246.9915,0,U,53419,999,21247,-.344543E-3,-.5774E-4,0
STARLINK-4552,2022-097AJ,2026-06-09T00:25:45.172416,15.08833992,.00014105,53.1671,64.0848,91.4583,268.6570,0,U,53420,999,21241,.9256514E-5,-.141E-5,0
STARLINK-4545,2022-097AK,2026-06-09T10:08:40.269984,15.08832291,.00012053,53.1653,62.2650,85.6845,274.4284,0,U,53421,999,21247,-.17138088E-4,-.561E-5,0
STARLINK-4546,2022-097AL,2026-06-09T00:15:08.804448,15.08807862,.00012242,53.1665,64.1189,75.2691,284.8436,0,U,53422,999,21243,.33697688E-3,.5075E-4,0
STARLINK-4539,2022-097AM,2026-06-09T00:32:26.001024,15.08834279,.0001247,53.1665,64.0752,82.8204,277.2929,0,U,53423,999,21241,.86105807E-4,.1083E-4,0
STARLINK-4532,2022-097AN,2026-06-09T11:12:15.322464,15.08829580,.00012736,53.1626,62.0688,157.4102,202.6946,0,U,53424,999,21250,-.7968309E-5,-.415E-5,0
STARLINK-4531,2022-097AP,2026-06-09T00:20:27.402720,15.08804937,.00014041,53.1659,64.1022,81.1514,278.9636,0,U,53425,999,21240,.44297407E-3,.6762E-4,0
STARLINK-4558,2022-097AQ,2026-06-08T23:34:06.194496,15.08820791,.00010296,53.1643,54.4018,85.4251,274.6858,0,U,53426,999,21256,.7642043E-4,.928E-5,0
STARLINK-4543,2022-097AT,2026-06-08T23:28:48.190656,15.08828130,.00010829,53.1653,54.3781,92.1099,268.0016,0,U,53429,999,21256,.95729105E-4,.1236E-4,0
STARLINK-4538,2022-097AU,2026-06-09T10:25:53.590656,15.08835342,.00012545,53.1629,52.2507,85.4083,274.7052,0,U,53430,999,21261,.6411801E-5,-.186E-5,0
STARLINK-4548,2022-097AV,2026-06-09T09:27:32.044032,15.08830429,.00012529,53.1653,52.0079,87.8605,272.2530,0,U,53431,999,21263,.12427778E-4,-.9E-6,0
STARLINK-4557,2022-097AW,2026-06-09T00:16:27.701472,15.08815973,.00014166,53.1664,53.8767,95.7177,264.3976,0,U,53432,999,21257,.38329389E-3,.5814E-4,0
STARLINK-4549,2022-097AX,2026-06-09T10:20:35.274048,15.08836769,.00012762,53.1644,52.2262,84.8717,275.2420,0,U,53433,999,21261,.34401917E-4,.26E-5,0
STARLINK-4498,2022-097AY,2026-06-09T22:00:01.999584,15.93717029,.00000723,53.2164,23.8844,56.7904,47.0275,0,U,53434,999,595,.16693135E-2,.616435E-2,.16576368E-3
STARLINK-4542,2022-097AZ,2026-06-09T09:54:04.395168,15.08836522,.00012705,53.1644,52.1134,112.0576,248.0551,0,U,53435,999,21261,.28128803E-3,.4191E-4,0
STARLINK-4527,2022-097BA,2026-06-09T09:38:08.883744,15.08828715,.00012721,53.1657,52.0450,93.7667,266.3470,0,U,53436,999,21263,.1018374E-5,-.272E-5,0
STARLINK-4526,2022-097BC,2026-06-09T09:32:50.575776,15.08824738,.00014186,53.1663,52.0236,99.0125,261.1027,0,U,53438,999,21264,-.5034563E-5,-.368E-5,0
